{"type": "FeatureCollection", "features": [ {"type": "Feature", "properties": {"norad_id": 30121, "name": "FENGYUN 1C DEB", "group": "fengyun-1c-debris", "lat": -5.504346458012768, "lon": 3.166399183065085, "alt_km": 784.8466125297264, "timestamp": "2025-12-08T08:59:01.039756+00:00", "meta": {"OBJECT_NAME": "FENGYUN 1C DEB", "OBJECT_ID": "1999-025SA", "EPOCH": "2025-12-07T23:19:55.498368", "MEAN_MOTION": 14.39901227, "ECCENTRICITY": 0.00315993, "INCLINATION": 102.1649, "RA_OF_ASC_NODE": 1.4064, "ARG_OF_PERICENTER": 177.1287, "MEAN_ANOMALY": 253.8052, "EPHEMERIS_TYPE": 0, "CLASSIFICATION_TYPE": "U", "NORAD_CAT_ID": 30121, "ELEMENT_SET_NO": 999, "REV_AT_EPOCH": 97471, "BSTAR": 0.0026628914, "MEAN_MOTION_DOT": 8.357e-05, "MEAN_MOTION_DDOT": 0}, "tle": {"line1": "1 30121U 99025SA  25341.97217012  .00008357  00000+0  26629-2 0  9995", "line2": "2 30121 102.1649   1.4064 0031599 177.1287 253.8052 14.39901227974718"}}, "geometry": {"type": "Point", "coordinates": [3.166399183065085, -5.504346458012768]}}, {"type": "Feature", "properties": {"norad_id": 30123, "name": "FENGYUN 1C DEB", "group": "fengyun-1c-debris", "lat": -9.62080424782248, "lon": -75.07280136947895, "alt_km": 856.1582638092641, "timestamp": "2025-12-08T08:59:01.039766+00:00", "meta": {"OBJECT_NAME": "FENGYUN 1C DEB", "OBJECT_ID": "1999-025SC", "EPOCH": "2025-12-07T19:33:22.672800", "MEAN_MOTION": 14.25910885, "ECCENTRICITY": 0.02304792, "INCLINATION": 96.9266, "RA_OF_ASC_NODE": 283.3033, "ARG_OF_PERICENTER": 99.7423, "MEAN_ANOMALY": 262.9873, "EPHEMERIS_TYPE": 0, "CLASSIFICATION_TYPE": "U", "NORAD_CAT_ID": 30123, "ELEMENT_SET_NO": 999, "REV_AT_EPOCH": 97177, "BSTAR": 0.0021039501, "MEAN_MOTION_DOT": 6.602e-05, "MEAN_MOTION_DDOT": 0}, "tle": {"line1": "1 30123U 99025SC  25341.81484575  .00006602  00000+0  21040-2 0  9993", "line2": "2 30123  96.9266 283.3033 0230479  99.7423 262.9873 14.25910885971771"}}, "geometry": {"type": "Point", "coordinates": [-75.07280136947895, -9.62080424782248]}}, {"type": "Feature", "properties": {"norad_id": 30124, "name": "FENGYUN 1C DEB", "group": "fengyun-1c-debris", "lat": 77.0882911362646, "lon": -99.30167034172021, "alt_km": 739.4005479384232, "timestamp": "2025-12-08T08:59:01.039776+00:00", "meta": {"OBJECT_NAME": "FENGYUN 1C DEB", "OBJECT_ID": "1999-025SD", "EPOCH": "2025-12-07T17:47:09.472704", "MEAN_MOTION": 14.1420443, "ECCENTRICITY": 0.014361, "INCLINATION": 99.1312, "RA_OF_ASC_NODE": 35.4972, "ARG_OF_PERICENTER": 119.8228, "MEAN_ANOMALY": 357.7401, "EPHEMERIS_TYPE": 0, "CLASSIFICATION_TYPE": "U", "NORAD_CAT_ID": 30124, "ELEMENT_SET_NO": 999, "REV_AT_EPOCH": 96844, "BSTAR": 0.0016357787, "MEAN_MOTION_DOT": 3.4e-05, "MEAN_MOTION_DDOT": 0}, "tle": {"line1": "1 30124U 99025SD  25341.74108186  .00003400  00000+0  16358-2 0  9996", "line2": "2 30124  99.1312  35.4972 0143610 119.8228 357.7401 14.14204430968444"}}, "geometry": {"type": "Point", "coordinates": [-99.30167034172021, 77.0882911362646]}}, {"type": "Feature", "properties": {"norad_id": 30125, "name": "FENGYUN 1C DEB", "group": "fengyun-1c-debris", "lat": 53.6017258868386, "lon": -86.77117904129172, "alt_km": 959.8405970666427, "timestamp": "2025-12-08T08:59:01.039787+00:00", "meta": {"OBJECT_NAME": "FENGYUN 1C DEB", "OBJECT_ID": "1999-025SE", "EPOCH": "2025-12-07T17:55:49.113408", "MEAN_MOTION": 14.22613488, "ECCENTRICITY": 0.03426612, "INCLINATION": 98.7241, "RA_OF_ASC_NODE": 80.5847, "ARG_OF_PERICENTER": 358.673, "MEAN_ANOMALY": 153.1774, "EPHEMERIS_TYPE": 0, "CLASSIFICATION_TYPE": "U", "NORAD_CAT_ID": 30125, "ELEMENT_SET_NO": 999, "REV_AT_EPOCH": 96850, "BSTAR": 0.0011123068, "MEAN_MOTION_DOT": 4.501e-05, "MEAN_MOTION_DDOT": 0}, "tle": {"line1": "1 30125U 99025SE  25341.74709622  .00004501  00000+0  11123-2 0  9997", "line2": "2 30125  98.7241  80.5847 0342661 358.6730 153.1774 14.22613488968505"}}, "geometry": {"type": "Point", "coordinates": [-86.77117904129172, 53.6017258868386]}}, {"type": "Feature", "properties": {"norad_id": 30127, "name": "FENGYUN 1C DEB", "group": "fengyun-1c-debris", "lat": -67.73501402111737, "lon": -140.28557539548854, "alt_km": 830.054472952942, "timestamp": "2025-12-08T08:59:01.039797+00:00", "meta": {"OBJECT_NAME": "FENGYUN 1C DEB", "OBJECT_ID": "1999-025SG", "EPOCH": "2025-12-07T01:34:35.736960", "MEAN_MOTION": 14.37874597, "ECCENTRICITY": 0.00848176, "INCLINATION": 98.207, "RA_OF_ASC_NODE": 197.8239, "ARG_OF_PERICENTER": 96.1768, "MEAN_ANOMALY": 264.9091, "EPHEMERIS_TYPE": 0, "CLASSIFICATION_TYPE": "U", "NORAD_CAT_ID": 30127, "ELEMENT_SET_NO": 999, "REV_AT_EPOCH": 97154, "BSTAR": 0.0036458977, "MEAN_MOTION_DOT": 0.00011443, "MEAN_MOTION_DDOT": 0}, "tle": {"line1": "1 30127U 99025SG  25341.06569140  .00011443  00000+0  36459-2 0  9995", "line2": "2 30127  98.2070 197.8239 0084817  96.1768 264.9091 14.37874597971547"}}, "geometry": {"type": "Point", "coordinates": [-140.28557539548854, -67.73501402111737]}}, {"type": "Feature", "properties": {"norad_id": 30128, "name": "FENGYUN 1C DEB", "group": "fengyun-1c-debris", "lat": 37.64904245364046, "lon": 167.3145561650166, "alt_km": 659.6727006581568, "timestamp": "2025-12-08T08:59:01.039807+00:00", "meta": {"OBJECT_NAME": "FENGYUN 1C DEB", "OBJECT_ID": "1999-025SH", "EPOCH": "2025-12-07T22:41:26.853216", "MEAN_MOTION": 14.4597944, "ECCENTRICITY": 0.01074923, "INCLINATION": 96.9799, "RA_OF_ASC_NODE": 341.538, "ARG_OF_PERICENTER": 139.9583, "MEAN_ANOMALY": 290.7595, "EPHEMERIS_TYPE": 0, "CLASSIFICATION_TYPE": "U", "NORAD_CAT_ID": 30128, "ELEMENT_SET_NO": 999, "REV_AT_EPOCH": 97242, "BSTAR": 0.003006856, "MEAN_MOTION_DOT": 0.00011482, "MEAN_MOTION_DDOT": 0}, "tle": {"line1": "1 30128U 99025SH  25341.94544969  .00011482  00000+0  30069-2 0  9999", "line2": "2 30128  96.9799 341.5380 0107492 139.9583 290.7595 14.45979440972428"}}, "geometry": {"type": "Point", "coordinates": [167.3145561650166, 37.64904245364046]}}, {"type": "Feature", "properties": {"norad_id": 30129, "name": "FENGYUN 1C DEB", "group": "fengyun-1c-debris", "lat": 72.74597614307288, "lon": -102.27226048454217, "alt_km": 761.9912798166279, "timestamp": "2025-12-08T08:59:01.039817+00:00", "meta": {"OBJECT_NAME": "FENGYUN 1C DEB", "OBJECT_ID": "1999-025SJ", "EPOCH": "2025-12-07T19:14:19.180032", "MEAN_MOTION": 14.01565185, "ECCENTRICITY": 0.01887208, "INCLINATION": 98.0266, "RA_OF_ASC_NODE": 284.244, "ARG_OF_PERICENTER": 106.3656, "MEAN_ANOMALY": 321.3721, "EPHEMERIS_TYPE": 0, "CLASSIFICATION_TYPE": "U", "NORAD_CAT_ID": 30129, "ELEMENT_SET_NO": 999, "REV_AT_EPOCH": 96409, "BSTAR": 0.00072490496, "MEAN_MOTION_DOT": 1.247e-05, "MEAN_MOTION_DDOT": 0}, "tle": {"line1": "1 30129U 99025SJ  25341.80161088  .00001247  00000+0  72490-3 0  9995", "line2": "2 30129  98.0266 284.2440 0188720 106.3656 321.3721 14.01565185964098"}}, "geometry": {"type": "Point", "coordinates": [-102.27226048454217, 72.74597614307288]}}, {"type": "Feature", "properties": {"norad_id": 30131, "name": "FENGYUN 1C DEB", "group": "fengyun-1c-debris", "lat": -18.371790568355117, "lon": -108.9534569742302, "alt_km": 773.3336868193737, "timestamp": "2025-12-08T08:59:01.039856+00:00", "meta": {"OBJECT_NAME": "FENGYUN 1C DEB", "OBJECT_ID": "1999-025SL", "EPOCH": "2025-12-07T20:47:42.324576", "MEAN_MOTION": 14.21101769, "ECCENTRICITY": 0.00831942, "INCLINATION": 99.075, "RA_OF_ASC_NODE": 73.5677, "ARG_OF_PERICENTER": 172.3989, "MEAN_ANOMALY": 308.9285, "EPHEMERIS_TYPE": 0, "CLASSIFICATION_TYPE": "U", "NORAD_CAT_ID": 30131, "ELEMENT_SET_NO": 999, "REV_AT_EPOCH": 96619, "BSTAR": 0.004814652, "MEAN_MOTION_DOT": 0.00010799, "MEAN_MOTION_DDOT": 0}, "tle": {"line1": "1 30131U 99025SL  25341.86646209  .00010799  00000+0  48147-2 0  9990", "line2": "2 30131  99.0750  73.5677 0083194 172.3989 308.9285 14.21101769966197"}}, "geometry": {"type": "Point", "coordinates": [-108.9534569742302, -18.371790568355117]}}, {"type": "Feature", "properties": {"norad_id": 30132, "name": "FENGYUN 1C DEB", "group": "fengyun-1c-debris", "lat": -59.59038799660425, "lon": 99.07641158716832, "alt_km": 995.859827013096, "timestamp": "2025-12-08T08:59:01.039867+00:00", "meta": {"OBJECT_NAME": "FENGYUN 1C DEB", "OBJECT_ID": "1999-025SM", "EPOCH": "2025-12-07T20:02:33.441792", "MEAN_MOTION": 13.94841979, "ECCENTRICITY": 0.01057321, "INCLINATION": 99.5768, "RA_OF_ASC_NODE": 295.2342, "ARG_OF_PERICENTER": 62.8192, "MEAN_ANOMALY": 351.9641, "EPHEMERIS_TYPE": 0, "CLASSIFICATION_TYPE": "U", "NORAD_CAT_ID": 30132, "ELEMENT_SET_NO": 999, "REV_AT_EPOCH": 96021, "BSTAR": 0.00076364729, "MEAN_MOTION_DOT": 1.027e-05, "MEAN_MOTION_DDOT": 0}, "tle": {"line1": "1 30132U 99025SM  25341.83510928  .00001027  00000+0  76365-3 0  9994", "line2": "2 30132  99.5768 295.2342 0105732  62.8192 351.9641 13.94841979960210"}}, "geometry": {"type": "Point", "coordinates": [99.07641158716832, -59.59038799660425]}}, {"type": "Feature", "properties": {"norad_id": 30133, "name": "FENGYUN 1C DEB", "group": "fengyun-1c-debris", "lat": -57.74088369392856, "lon": 162.82381893641036, "alt_km": 823.3033762221321, "timestamp": "2025-12-08T08:59:01.039877+00:00", "meta": {"OBJECT_NAME": "FENGYUN 1C DEB", "OBJECT_ID": "1999-025SN", "EPOCH": "2025-12-07T23:35:07.337184", "MEAN_MOTION": 14.06635094, "ECCENTRICITY": 0.00856052, "INCLINATION": 98.3246, "RA_OF_ASC_NODE": 149.0502, "ARG_OF_PERICENTER": 273.9587, "MEAN_ANOMALY": 205.0473, "EPHEMERIS_TYPE": 0, "CLASSIFICATION_TYPE": "U", "NORAD_CAT_ID": 30133, "ELEMENT_SET_NO": 999, "REV_AT_EPOCH": 96311, "BSTAR": 0.0022170074, "MEAN_MOTION_DOT": 3.762e-05, "MEAN_MOTION_DDOT": 0}, "tle": {"line1": "1 30133U 99025SN  25341.98272381  .00003762  00000+0  22170-2 0  9991", "line2": "2 30133  98.3246 149.0502 0085605 273.9587 205.0473 14.06635094963119"}}, "geometry": {"type": "Point", "coordinates": [162.82381893641036, -57.74088369392856]}}]}